CCSDS_OMM_VERS = 2.0
CREATION_DATE  = 
ORIGINATOR     = 

OBJECT_NAME    = HTV-X1
OBJECT_ID      = 2025-241A
CENTER_NAME    = EARTH
REF_FRAME      = TEME
TIME_SYSTEM    = UTC
MEAN_ELEMENT_THEORY = SGP/SGP4

EPOCH          = 2026-03-28T11:54:59.318496
MEAN_MOTION    = 15.32429125
ECCENTRICITY   = .0007307
INCLINATION    = 51.6386
RA_OF_ASC_NODE = 342.4427
ARG_OF_PERICENTER = 244.0862
MEAN_ANOMALY   = 115.9366

EPHEMERIS_TYPE = 0
CLASSIFICATION_TYPE = U
NORAD_CAT_ID   = 66174
ELEMENT_SET_NO = 999
REV_AT_EPOCH   = 2382
BSTAR          = .88582E-4
MEAN_MOTION_DOT = .2445E-4
MEAN_MOTION_DDOT = 0

CCSDS_OMM_VERS = 2.0
CREATION_DATE  = 
ORIGINATOR     = 

OBJECT_NAME    = SZ-21 MODULE
OBJECT_ID      = 2025-246C
CENTER_NAME    = EARTH
REF_FRAME      = TEME
TIME_SYSTEM    = UTC
MEAN_ELEMENT_THEORY = SGP/SGP4

EPOCH          = 2026-03-28T06:35:15.338976
MEAN_MOTION    = 15.69967006
ECCENTRICITY   = .0001568
INCLINATION    = 41.4743
RA_OF_ASC_NODE = 88.8326
ARG_OF_PERICENTER = 210.3682
MEAN_ANOMALY   = 149.7069

EPHEMERIS_TYPE = 0
CLASSIFICATION_TYPE = U
NORAD_CAT_ID   = 66515
ELEMENT_SET_NO = 999
REV_AT_EPOCH   = 2099
BSTAR          = .34891E-3
MEAN_MOTION_DOT = .43062E-3
MEAN_MOTION_DDOT = 0

CCSDS_OMM_VERS = 2.0
CREATION_DATE  = 
ORIGINATOR     = 

OBJECT_NAME    = SHENZHOU-22
OBJECT_ID      = 2025-272A
CENTER_NAME    = EARTH
REF_FRAME      = TEME
TIME_SYSTEM    = UTC
MEAN_ELEMENT_THEORY = SGP/SGP4

EPOCH          = 2026-03-28T09:29:17.689632
MEAN_MOTION    = 15.61580461
ECCENTRICITY   = .0004058
INCLINATION    = 41.4669
RA_OF_ASC_NODE = 94.2614
ARG_OF_PERICENTER = 45.3760
MEAN_ANOMALY   = 314.7410

EPHEMERIS_TYPE = 0
CLASSIFICATION_TYPE = U
NORAD_CAT_ID   = 66645
ELEMENT_SET_NO = 999
REV_AT_EPOCH   = 28067
BSTAR          = .20488E-3
MEAN_MOTION_DOT = .17812E-3
MEAN_MOTION_DDOT = 0

CCSDS_OMM_VERS = 2.0
CREATION_DATE  = 
ORIGINATOR     = 

OBJECT_NAME    = SOYUZ-MS 28
OBJECT_ID      = 2025-275A
CENTER_NAME    = EARTH
REF_FRAME      = TEME
TIME_SYSTEM    = UTC
MEAN_ELEMENT_THEORY = SGP/SGP4

EPOCH          = 2026-03-28T11:41:48.111360
MEAN_MOTION    = 15.48607800
ECCENTRICITY   = .0006231
INCLINATION    = 51.6344
RA_OF_ASC_NODE = 339.4313
ARG_OF_PERICENTER = 242.6596
MEAN_ANOMALY   = 117.3758

EPHEMERIS_TYPE = 0
CLASSIFICATION_TYPE = U
NORAD_CAT_ID   = 66664
ELEMENT_SET_NO = 999
REV_AT_EPOCH   = 55932
BSTAR          = .22419E-3
MEAN_MOTION_DOT = .11758E-3
MEAN_MOTION_DDOT = 0

CCSDS_OMM_VERS = 2.0
CREATION_DATE  = 
ORIGINATOR     = 

OBJECT_NAME    = DUPLEX
OBJECT_ID      = 1998-067XS
CENTER_NAME    = EARTH
REF_FRAME      = TEME
TIME_SYSTEM    = UTC
MEAN_ELEMENT_THEORY = SGP/SGP4

EPOCH          = 2026-03-28T06:22:42.121056
MEAN_MOTION    = 15.57460448
ECCENTRICITY   = .00029
INCLINATION    = 51.6303
RA_OF_ASC_NODE = 336.4539
ARG_OF_PERICENTER = 197.4506
MEAN_ANOMALY   = 162.6387

EPHEMERIS_TYPE = 0
CLASSIFICATION_TYPE = U
NORAD_CAT_ID   = 66906
ELEMENT_SET_NO = 999
REV_AT_EPOCH   = 1802
BSTAR          = .45879E-3
MEAN_MOTION_DOT = .34002E-3
MEAN_MOTION_DDOT = 0

CCSDS_OMM_VERS = 2.0
CREATION_DATE  = 
ORIGINATOR     = 

OBJECT_NAME    = ISS OBJECT XT
OBJECT_ID      = 1998-067XT
CENTER_NAME    = EARTH
REF_FRAME      = TEME
TIME_SYSTEM    = UTC
MEAN_ELEMENT_THEORY = SGP/SGP4

EPOCH          = 2026-03-28T01:50:16.123200
MEAN_MOTION    = 15.75968383
ECCENTRICITY   = .00059077
INCLINATION    = 51.6249
RA_OF_ASC_NODE = 331.4049
ARG_OF_PERICENTER = 198.8815
MEAN_ANOMALY   = 161.1966

EPHEMERIS_TYPE = 0
CLASSIFICATION_TYPE = U
NORAD_CAT_ID   = 66907
ELEMENT_SET_NO = 999
REV_AT_EPOCH   = 1807
BSTAR          = .13411821E-2
MEAN_MOTION_DOT = .217682E-2
MEAN_MOTION_DDOT = 0

CCSDS_OMM_VERS = 2.0
CREATION_DATE  = 
ORIGINATOR     = 

OBJECT_NAME    = ISS OBJECT XU
OBJECT_ID      = 1998-067XU
CENTER_NAME    = EARTH
REF_FRAME      = TEME
TIME_SYSTEM    = UTC
MEAN_ELEMENT_THEORY = SGP/SGP4

EPOCH          = 2026-03-28T01:44:58.661952
MEAN_MOTION    = 15.76216894
ECCENTRICITY   = .00061326
INCLINATION    = 51.6247
RA_OF_ASC_NODE = 331.3755
ARG_OF_PERICENTER = 198.7840
MEAN_ANOMALY   = 161.2934

EPHEMERIS_TYPE = 0
CLASSIFICATION_TYPE = U
NORAD_CAT_ID   = 66908
ELEMENT_SET_NO = 999
REV_AT_EPOCH   = 1807
BSTAR          = .13700376E-2
MEAN_MOTION_DOT = .225038E-2
MEAN_MOTION_DDOT = 0

CCSDS_OMM_VERS = 2.0
CREATION_DATE  = 
ORIGINATOR     = 

OBJECT_NAME    = SILVERSAT
OBJECT_ID      = 1998-067XV
CENTER_NAME    = EARTH
REF_FRAME      = TEME
TIME_SYSTEM    = UTC
MEAN_ELEMENT_THEORY = SGP/SGP4

EPOCH          = 2026-03-28T02:13:05.357568
MEAN_MOTION    = 15.81335789
ECCENTRICITY   = .00069275
INCLINATION    = 51.6219
RA_OF_ASC_NODE = 329.9939
ARG_OF_PERICENTER = 204.2844
MEAN_ANOMALY   = 155.7832

EPHEMERIS_TYPE = 0
CLASSIFICATION_TYPE = U
NORAD_CAT_ID   = 66909
ELEMENT_SET_NO = 999
REV_AT_EPOCH   = 1809
BSTAR          = .154577E-2
MEAN_MOTION_DOT = .323857E-2
MEAN_MOTION_DDOT = 0

CCSDS_OMM_VERS = 2.0
CREATION_DATE  = 
ORIGINATOR     = 

OBJECT_NAME    = ISS OBJECT XW
OBJECT_ID      = 1998-067XW
CENTER_NAME    = EARTH
REF_FRAME      = TEME
TIME_SYSTEM    = UTC
MEAN_ELEMENT_THEORY = SGP/SGP4

EPOCH          = 2026-03-28T09:36:29.096928
MEAN_MOTION    = 15.74694889
ECCENTRICITY   = .0006323
INCLINATION    = 51.6241
RA_OF_ASC_NODE = 329.8088
ARG_OF_PERICENTER = 198.6394
MEAN_ANOMALY   = 161.4375

EPHEMERIS_TYPE = 0
CLASSIFICATION_TYPE = U
NORAD_CAT_ID   = 66910
ELEMENT_SET_NO = 999
REV_AT_EPOCH   = 1812
BSTAR          = .13316E-2
MEAN_MOTION_DOT = .204122E-2
MEAN_MOTION_DDOT = 0

CCSDS_OMM_VERS = 2.0
CREATION_DATE  = 
ORIGINATOR     = 

OBJECT_NAME    = ISS OBJECT XX
OBJECT_ID      = 1998-067XX
CENTER_NAME    = EARTH
REF_FRAME      = TEME
TIME_SYSTEM    = UTC
MEAN_ELEMENT_THEORY = SGP/SGP4

EPOCH          = 2026-03-28T00:53:28.224672
MEAN_MOTION    = 15.87650980
ECCENTRICITY   = .00086921
INCLINATION    = 51.6193
RA_OF_ASC_NODE = 328.8401
ARG_OF_PERICENTER = 208.4454
MEAN_ANOMALY   = 151.6078

EPHEMERIS_TYPE = 0
CLASSIFICATION_TYPE = U
NORAD_CAT_ID   = 66911
ELEMENT_SET_NO = 999
REV_AT_EPOCH   = 1809
BSTAR          = .16862247E-2
MEAN_MOTION_DOT = .487256E-2
MEAN_MOTION_DDOT = 0

CCSDS_OMM_VERS = 2.0
CREATION_DATE  = 
ORIGINATOR     = 

OBJECT_NAME    = ISS OBJECT XY
OBJECT_ID      = 1998-067XY
CENTER_NAME    = EARTH
REF_FRAME      = TEME
TIME_SYSTEM    = UTC
MEAN_ELEMENT_THEORY = SGP/SGP4

EPOCH          = 2026-03-28T02:14:39.765984
MEAN_MOTION    = 15.67410233
ECCENTRICITY   = .00043109
INCLINATION    = 51.6270
RA_OF_ASC_NODE = 333.7912
ARG_OF_PERICENTER = 195.7948
MEAN_ANOMALY   = 164.2915

EPHEMERIS_TYPE = 0
CLASSIFICATION_TYPE = U
NORAD_CAT_ID   = 66912
ELEMENT_SET_NO = 999
REV_AT_EPOCH   = 1803
BSTAR          = .99368188E-3
MEAN_MOTION_DOT = .110653E-2
MEAN_MOTION_DDOT = 0

CCSDS_OMM_VERS = 2.0
CREATION_DATE  = 
ORIGINATOR     = 

OBJECT_NAME    = KNACKSAT-2
OBJECT_ID      = 1998-067XZ
CENTER_NAME    = EARTH
REF_FRAME      = TEME
TIME_SYSTEM    = UTC
MEAN_ELEMENT_THEORY = SGP/SGP4

EPOCH          = 2026-03-28T06:21:28.174752
MEAN_MOTION    = 15.53355433
ECCENTRICITY   = .0009955
INCLINATION    = 51.6323
RA_OF_ASC_NODE = 339.4481
ARG_OF_PERICENTER = 253.0442
MEAN_ANOMALY   = 106.9457

EPHEMERIS_TYPE = 0
CLASSIFICATION_TYPE = U
NORAD_CAT_ID   = 67683
ELEMENT_SET_NO = 999
REV_AT_EPOCH   = 767
BSTAR          = .70041E-3
MEAN_MOTION_DOT = .44943E-3
MEAN_MOTION_DDOT = 0

